SAC-D
1 37673U 11024A   13333.46651644 +.00000000 +00000+0 +12808-4 6  9294
2 37673  98.0128 338.5432 0001366  88.9240  24.7909 14.72368060132386
